*******************************************************************************
 Revised: Aug 14, 2019     Spitzer Space Telescope (SST) / (Sun)            -79 
                              http://spitzer.caltech.edu/

 Spitzer Space Telescope 
  Launched: Aug 25, 2003
  Renamed : Dec 18, 2003 (formerly "SIRTF": Space Infrared Telescope Facility)

 EXTENDED MISSION (2009-present):
  Cryogen depletion is expected to occur in April 2009. A 2-year extended 
  "warm" mission will continue operating the 3.6 and 4.5 micron channels on the
  IRAC instrument with expected sensitivity unchanged from performance in the 
  cryogenic mission. The longer wavelength IRAC channels (5.6 and 8.0 microns) 
  and the MIPS and IRS instruments will be unavailable.

 PRIME MISSION (2003-2009):
  Spitzer will obtain images and spectra by detecting infrared (heat) energy, 
  having wavelengths of 3 and 180 microns, radiated by objects in space.  Most
  of this infrared radiation is blocked by the Earth's atmosphere and cannot be
  observed from the ground.  The telescope must be cooled to near absolute zero
  (-459 degrees F, or -273 degrees Celsius) to record infrared from distant 
  regions of space without interference from the telescope's own heat.

 SPACECRAFT:
   0.85-meter telescope 
   3 cryogenically-cooled science instruments
   2 solar panels composed of 392 solar cells, producing 427 Watts. 
   Each solar cell is 5.5 x 6.5 cm. Each panel is 50% covered by solar cells,
    and 50% covered by optical reflectors to reduce panel temp to 330 K.
   Spitzer cannot point more than 120 degrees away from the sun and maintain
    adequate power levels.

 SPACECRAFT TRAJECTORY:
   Post-launch trajectory "sst_030825_190812_220101"

   This orbit solution is based on 2-way doppler tracking data through 
   2019-Aug-10. The trajectory after that date is the nominal prediction.
*******************************************************************************
 
 
*******************************************************************************
Ephemeris / WWW_USER Thu Dec 19 16:51:24 2019 Pasadena, USA      / Horizons    
*******************************************************************************
Target body name: Spitzer Space Telescope (-79)   {source: sst_030825_191125_220101}
Center body name: Solar System Barycenter (0)     {source: DE431mx}
Center-site name: BODY CENTER
*******************************************************************************
Start time      : A.D. 2005-Dec-19 00:00:00.0000 TDB
Stop  time      : A.D. 2020-Jan-18 00:00:00.0000 TDB
Step-size       : 1440 minutes
*******************************************************************************
Center geodetic : 0.00000000,0.00000000,0.0000000 {E-lon(deg),Lat(deg),Alt(km)}
Center cylindric: 0.00000000,0.00000000,0.0000000 {E-lon(deg),Dxy(km),Dz(km)}
Center radii    : (undefined)                                                  
Output units    : KM-S                                                         
Output type     : GEOMETRIC cartesian states
Output format   : 2 (position and velocity)
Reference frame : ICRF/J2000.0                                                 
Coordinate systm: Ecliptic and Mean Equinox of Reference Epoch                 
*******************************************************************************
            JDTDB,            Calendar Date (TDB),        delta-T,                      X,                      Y,                      Z,                     VX,                     VY,                     VZ,
******************************************************************************************************************************************************************************************************************
$$SOE
2454013.500000000, A.D. 2006-Oct-05 00:00:00.0000,      65.182330,  1.522679570447129E+08, -2.048014505161916E+07,  1.760638560760329E+06,  3.889252275996463E+00,  2.900907798150476E+01,  4.692016987903145E-01,
2454014.500000000, A.D. 2006-Oct-06 00:00:00.0000,      65.182330,  1.525830985916218E+08, -1.797098288296075E+07,  1.800931052504329E+06,  3.405507512543886E+00,  2.907205105710502E+01,  4.634734835638685E-01,
2454015.500000000, A.D. 2006-Oct-07 00:00:00.0000,      65.182331,  1.528563978323751E+08, -1.545672450201693E+07,  1.840723422054736E+06,  2.920700847805329E+00,  2.912704158141635E+01,  4.576243516415897E-01,
2454016.500000000, A.D. 2006-Oct-08 00:00:00.0000,      65.182332,  1.530877694170256E+08, -1.293806045542446E+07,  1.880004921794765E+06,  2.434982354593108E+00,  2.917403248391955E+01,  4.516485412930056E-01,
2454017.500000000, A.D. 2006-Oct-09 00:00:00.0000,      65.182333,  1.532771403775647E+08, -1.041568247394433E+07,  1.918764640687703E+06,  1.948486775028566E+00,  2.921301093898914E+01,  4.455468203597679E-01,
2454018.500000000, A.D. 2006-Oct-10 00:00:00.0000,      65.182335,  1.534244491287069E+08, -7.890283521509487E+06,  1.956991779168709E+06,  1.461340604165284E+00,  2.924395897626995E+01,  4.393202866815127E-01,
2454019.500000000, A.D. 2006-Oct-11 00:00:00.0000,      65.182337,  1.535296445876350E+08, -5.362557985000858E+06,  1.994676206965333E+06,  9.736636846898533E-01,  2.926686480251502E+01,  4.329843902599038E-01,
2454020.500000000, A.D. 2006-Oct-12 00:00:00.0000,      65.182340,  1.535926875096221E+08, -2.833200998561819E+06,  2.031807481577428E+06,  4.856097991191499E-01,  2.928172478657168E+01,  4.265163815500834E-01,
2454021.500000000, A.D. 2006-Oct-13 00:00:00.0000,      65.182344,  1.536135505551605E+08, -3.029081710918514E+05,  2.068374781761550E+06, -2.701325201409649E-03,  2.928852484761988E+01,  4.199291842232782E-01,
2454022.500000000, A.D. 2006-Oct-14 00:00:00.0000,      65.182348,  1.535922164482695E+08,  2.227623703205870E+06,  2.104368019832831E+06, -4.911544083939297E-01,  2.928725754233763E+01,  4.132287676310646E-01,
2454023.500000000, A.D. 2006-Oct-15 00:00:00.0000,      65.182353,  1.535286788893714E+08,  4.757697519214706E+06,  2.139777496155459E+06, -9.796113902794594E-01,  2.927792168324834E+01,  4.064168685116218E-01,
2454024.500000000, A.D. 2006-Oct-16 00:00:00.0000,      65.182358,  1.534229442259912E+08,  7.286616339628769E+06,  2.174593230710146E+06, -1.467918015004128E+00,  2.926051969383288E+01,  3.994838645020629E-01,
2454025.500000000, A.D. 2006-Oct-17 00:00:00.0000,      65.182364,  1.532750301164608E+08,  9.813682888023986E+06,  2.208805024643394E+06, -1.955965036782150E+00,  2.923504611917870E+01,  3.924372856380671E-01,
2454026.500000000, A.D. 2006-Oct-18 00:00:00.0000,      65.182370,  1.530849647992520E+08,  1.233819994938651E+07,  2.242403238028241E+06, -2.443618606914654E+00,  2.920150453470517E+01,  3.852808056292663E-01,
2454027.500000000, A.D. 2006-Oct-19 00:00:00.0000,      65.182377,  1.528527880364432E+08,  1.485947070266872E+07,  2.275378389369491E+06, -2.930745050379923E+00,  2.915990055714309E+01,  3.780146474152701E-01,
2454028.500000000, A.D. 2006-Oct-20 00:00:00.0000,      65.182384,  1.525785508422302E+08,  1.737679869670438E+07,  2.307721155257840E+06, -3.417217937935015E+00,  2.911023832978377E+01,  3.706427795387395E-01,
2454029.500000000, A.D. 2006-Oct-21 00:00:00.0000,      65.182392,  1.522623153189368E+08,  1.988948806819238E+07,  2.339422404914970E+06, -3.902906717643644E+00,  2.905252600198576E+01,  3.631650525731072E-01,
2454030.500000000, A.D. 2006-Oct-22 00:00:00.0000,      65.182401,  1.519041551703523E+08,  2.239684378582714E+07,  2.370473114896317E+06, -4.387673872224732E+00,  2.898677737952600E+01,  3.555847274721842E-01,
2454031.500000000, A.D. 2006-Oct-23 00:00:00.0000,      65.182410,  1.515041554850049E+08,  2.489817199785534E+07,  2.400864546506314E+06, -4.871392488985956E+00,  2.891300237189056E+01,  3.479036916543787E-01,
2454032.500000000, A.D. 2006-Oct-24 00:00:00.0000,      65.182419,  1.510624124686140E+08,  2.739277981335091E+07,  2.430588078642774E+06, -5.353930610139866E+00,  2.883121816537286E+01,  3.401244754468919E-01,
2454033.500000000, A.D. 2006-Oct-25 00:00:00.0000,      65.182429,  1.505790336134957E+08,  2.987997586011218E+07,  2.459635282083128E+06, -5.835165678329890E+00,  2.874143363112574E+01,  3.322483981670050E-01,
2454034.500000000, A.D. 2006-Oct-26 00:00:00.0000,      65.182439,  1.500541374940277E+08,  3.235906987615508E+07,  2.487997946520122E+06, -6.314956504821871E+00,  2.864367422156127E+01,  3.242790050478881E-01,
2454035.500000000, A.D. 2006-Oct-27 00:00:00.0000,      65.182450,  1.494878542299425E+08,  3.482937353312882E+07,  2.515668022764526E+06, -6.793179816477044E+00,  2.853795673275183E+01,  3.162165409598607E-01,
2454036.500000000, A.D. 2006-Oct-28 00:00:00.0000,      65.182461,  1.488803248139305E+08,  3.729020019421955E+07,  2.542637469213217E+06, -7.269706853492713E+00,  2.842430310269337E+01,  3.080612816513142E-01,
2454037.500000000, A.D. 2006-Oct-29 00:00:00.0000,      65.182472,  1.482317019590938E+08,  3.974086573524370E+07,  2.568898445453281E+06, -7.744396922365351E+00,  2.830274661786435E+01,  2.998184475183940E-01,
2454038.500000000, A.D. 2006-Oct-30 00:00:00.0000,      65.182484,  1.475421495637470E+08,  4.218068788203438E+07,  2.594443533296913E+06, -8.217126615116285E+00,  2.817330655233246E+01,  2.914888511865925E-01,
2454039.500000000, A.D. 2006-Oct-31 00:00:00.0000,      65.182496,  1.468118426141984E+08,  4.460898686923509E+07,  2.619265365197113E+06, -8.687767877394666E+00,  2.803601197208645E+01,  2.830773372742552E-01,
2454040.500000000, A.D. 2006-Nov-01 00:00:00.0000,      65.182509,  1.460409671408446E+08,  4.702508546302364E+07,  2.643356939002581E+06, -9.156191260838622E+00,  2.789089500929583E+01,  2.745844902740728E-01,
2454041.500000000, A.D. 2006-Nov-02 00:00:00.0000,      65.182522,  1.452297510087327E+08,  4.942826385103513E+07,  2.666691490896199E+06, -9.622261077373564E+00,  2.773799350838957E+01,  2.660171126261766E-01,
